ONEWEB-0683             
1 56719U 23068K   25340.93460686 -.00000016  00000+0 -77252-4 0  9998
2 56719  87.8995 297.5438 0001580  78.5919 281.5389 13.15549256124146
ONEWEB-0684             
1 56720U 23068L   25340.94250860 -.00000065  00000+0 -20721-3 0  9994
2 56720  87.8989 297.5367 0002930  59.2544 300.8875 13.15549564123979
ONEWEB-0686             
1 56721U 23068M   25340.91649606  .00000010  00000+0 -81480-5 0  9992
2 56721  87.9030 267.0888 0001673  63.0146 297.1154 13.15057364126414
ONEWEB-0694             
1 56722U 23068N   25340.86213137  .00000103  00000+0  23459-3 0  9995
2 56722  87.9051 267.0350 0001230  69.4692 290.6571 13.16594655126463
ONEWEB-0696             
1 56723U 23068P   25340.89974386 -.00000034  00000+0 -12479-3 0  9994
2 56723  87.8981 297.5985 0002166  77.4453 282.6919 13.15549452124087
ONEWEB-0703             
1 56724U 23068Q   25340.90925104 -.00000056  00000+0 -18290-3 0  9992
2 56724  87.8980 297.5785 0002851  84.6740 275.4716 13.15549991123975
ONEWEB-0721             
1 56725U 23068R   25340.96452086  .00000075  00000+0  14645-3 0  9992
2 56725  86.6792 146.8347 0001420  93.5976 266.5320 13.22453290132533
ONEWEB-0015             
1 61594U 24188A   25340.73641541  .00000179  00000+0  46849-3 0  9993
2 61594  87.8859  59.4241 0001738 122.9937 237.1358 13.11419713 59238
